NORAD_CAT_ID,OBJECT_NAME,OBJECT_TYPE,EPOCH,MEAN_MOTION,ECCENTRICITY,INCLINATION,RA_OF_ASC_NODE,ARG_OF_PERICENTER,MEAN_ANOMALY,BSTAR,MEAN_MOTION_DOT,MEAN_MOTION_DDOT,TLE_LINE0,TLE_LINE1,TLE_LINE2,SEMIMAJOR_AXIS,PERIOD,APOGEE,PERIGEE,DECAYED
51118.0,STARLINK-3394,PAYLOAD,2024-04-01 12:07:41,15.08814544,0.0001369,53.217,223.7955,85.1494,274.9655,0.00045809,7.005e-05,0.0,0 STARLINK-3394,1 51118U 22005Q   24092.50533861  .00007005  00000-0  45809-3 0  9994,2 51118  53.2170 223.7955 0001369  85.1494 274.9655 15.08814544123227,6917.958,95.439,540.77,538.876,0.0
51118.0,STARLINK-3394,PAYLOAD,2024-04-01 15:18:26,15.08832743,0.0001302,53.218,223.2008,81.9037,278.2103,5.9865e-05,6.65e-06,0.0,0 STARLINK-3394,1 51118U 22005Q   24092.63780862  .00000665  00000-0  59865-4 0  9996,2 51118  53.2180 223.2008 0001302  81.9037 278.2103 15.08832743122131,6917.903,95.438,540.668,538.867,0.0
51118.0,STARLINK-3394,PAYLOAD,2024-04-01 18:29:12,15.08838692,0.0001334,53.2199,222.6039,97.5405,262.5739,5.2662e-05,5.5e-06,0.0,0 STARLINK-3394,1 51118U 22005Q   24092.77028492  .00000550  00000-0  52662-4 0  9996,2 51118  53.2199 222.6039 0001334  97.5405 262.5739 15.08838692123260,6917.884,95.438,540.672,538.827,0.0
51118.0,STARLINK-3394,PAYLOAD,2024-04-02 11:58:27,15.08832052,0.0001318,53.219,219.332,90.6273,269.487,8.1686e-05,1.012e-05,0.0,0 STARLINK-3394,1 51118U 22005Q   24093.49893148  .00001012  00000-0  81686-4 0  9996,2 51118  53.2190 219.3320 0001318  90.6273 269.4870 15.08832052123374,6917.905,95.438,540.681,538.858,0.0
51118.0,STARLINK-3394,PAYLOAD,2024-04-02 15:09:13,15.08840846,0.0001383,53.2182,218.7401,89.8287,270.2864,3.7973e-05,3.16e-06,0.0,0 STARLINK-3394,1 51118U 22005Q   24093.63140598  .00000316  00000-0  37973-4 0  9992,2 51118  53.2182 218.7401 0001383  89.8287 270.2864 15.08840846122287,6917.878,95.438,540.7,538.786,0.0
51118.0,STARLINK-3394,PAYLOAD,2024-04-02 18:19:59,15.08840806,0.0001451,53.2186,218.1451,92.0617,268.0541,6.5529e-05,7.55e-06,0.0,0 STARLINK-3394,1 51118U 22005Q   24093.76388520  .00000755  00000-0  65529-4 0  9990,2 51118  53.2186 218.1451 0001451  92.0617 268.0541 15.08840806123418,6917.878,95.438,540.747,538.739,0.0
51118.0,STARLINK-3394,PAYLOAD,2024-04-03 11:49:14,15.0883391,0.0001402,53.2194,214.875,91.6964,268.4189,0.00012056,1.631e-05,0.0,0 STARLINK-3394,1 51118U 22005Q   24094.49253028  .00001631  00000-0  12056-3 0  9995,2 51118  53.2194 214.8750 0001402  91.6964 268.4189 15.08833910123520,6917.899,95.438,540.734,538.794,0.0
51118.0,STARLINK-3394,PAYLOAD,2024-04-03 15:00:00,15.0883757,0.0001394,53.2192,214.2807,92.771,267.3441,0.00014756,2.061e-05,0.0,0 STARLINK-3394,1 51118U 22005Q   24094.62500788  .00002061  00000-0  14756-3 0  9995,2 51118  53.2192 214.2807 0001394  92.7710 267.3441 15.08837570122430,6917.888,95.438,540.717,538.788,0.0
51118.0,STARLINK-3394,PAYLOAD,2024-04-03 18:10:46,15.08841952,0.0001366,53.219,213.6857,90.0008,270.114,0.0001278,1.747e-05,0.0,0 STARLINK-3394,1 51118U 22005Q   24094.75748585  .00001747  00000-0  12780-3 0  9993,2 51118  53.2190 213.6857 0001366  90.0008 270.1140 15.08841952122455,6917.874,95.437,540.684,538.794,0.0
51118.0,STARLINK-3394,PAYLOAD,2024-04-04 13:15:24,15.08838842,0.0001252,53.2184,210.1176,87.1202,272.9934,1.338e-05,-7.5e-07,0.0,0 STARLINK-3394,1 51118U 22005Q   24095.55237189 -.00000075  00000-0  13380-4 0  9997,2 51118  53.2184 210.1176 0001252  87.1202 272.9934 15.08838842123682,6917.884,95.438,540.615,538.883,0.0
51118.0,STARLINK-3394,PAYLOAD,2024-04-04 14:50:47,15.08839222,0.0001251,53.218,209.8208,93.4904,266.6231,3.0609e-05,1.99e-06,0.0,0 STARLINK-3394,1 51118U 22005Q   24095.61861098  .00000199  00000-0  30609-4 0  9995,2 51118  53.2180 209.8208 0001251  93.4904 266.6231 15.08839222122588,6917.883,95.438,540.613,538.882,0.0
51118.0,STARLINK-3394,PAYLOAD,2024-04-05 13:06:10,15.08849945,0.0001205,53.2174,205.6566,85.7898,274.3232,0.00011944,1.614e-05,0.0,0 STARLINK-3394,1 51118U 22005Q   24096.54595997  .00001614  00000-0  11944-3 0  9993,2 51118  53.2174 205.6566 0001205  85.7898 274.3232 15.08849945123836,6917.85,95.437,540.549,538.881,0.0
51118.0,STARLINK-3394,PAYLOAD,2024-04-05 14:41:33,15.08853665,0.0001239,53.2176,205.3588,84.337,275.7763,0.00014145,1.965e-05,0.0,0 STARLINK-3394,1 51118U 22005Q   24096.61219681  .00001965  00000-0  14145-3 0  9999,2 51118  53.2176 205.3588 0001239  84.3370 275.7763 15.08853665122732,6917.839,95.437,540.561,538.847,0.0
51118.0,STARLINK-3394,PAYLOAD,2024-04-06 16:07:45,15.08836212,0.0001433,53.2183,200.6008,71.1445,288.9703,3.2906e-05,2.36e-06,0.0,0 STARLINK-3394,1 51118U 22005Q   24097.67205215  .00000236  00000-0  32906-4 0  9990,2 51118  53.2183 200.6008 0001433  71.1445 288.9703 15.08836212124009,6917.892,95.438,540.748,538.766,0.0
51118.0,STARLINK-3394,PAYLOAD,2024-04-07 12:47:45,15.0884189,0.0001446,53.2185,196.7375,88.0242,272.0916,-5.8255e-06,-3.81e-06,0.0,0 STARLINK-3394,1 51118U 22005Q   24098.53317056 -.00000381  00000-0 -58255-5 0  9992,2 51118  53.2185 196.7375 0001446  88.0242 272.0916 15.08841890123028,6917.875,95.437,540.74,538.739,0.0
51118.0,STARLINK-3394,PAYLOAD,2024-04-07 23:55:27,15.08845854,0.0001348,53.2185,194.6545,95.2286,264.886,-4.4661e-05,-9.99e-06,0.0,0 STARLINK-3394,1 51118U 22005Q   24098.99684758 -.00000999  00000-0 -44661-4 0  9998,2 51118  53.2185 194.6545 0001348  95.2286 264.8860 15.08845854124205,6917.862,95.437,540.66,538.795,0.0
51118.0,STARLINK-3394,PAYLOAD,2024-04-08 12:38:33,15.08837218,0.00015,53.2161,192.2752,92.3075,267.8089,0.00011024,1.467e-05,0.0,0 STARLINK-3394,1 51118U 22005Q   24099.52677268  .00001467  00000-0  11024-3 0  9991,2 51118  53.2161 192.2752 0001500  92.3075 267.8089 15.08837218124286,6917.889,95.438,540.792,538.716,0.0
51118.0,STARLINK-3394,PAYLOAD,2024-04-09 12:29:19,15.08846062,0.0001438,53.2165,187.8144,90.4884,269.6273,0.00018573,2.67e-05,0.0,0 STARLINK-3394,1 51118U 22005Q   24100.52036579  .00002670  00000-0  18573-3 0  9991,2 51118  53.2165 187.8144 0001438  90.4884 269.6273 15.08846062124431,6917.862,95.437,540.722,538.732,0.0
51118.0,STARLINK-3394,PAYLOAD,2024-04-10 12:20:06,15.08843959,0.0001391,53.218,183.3534,88.528,271.5872,0.0001067,1.411e-05,0.0,0 STARLINK-3394,1 51118U 22005Q   24101.51396655  .00001411  00000-0  10670-3 0  9997,2 51118  53.2180 183.3534 0001391  88.5280 271.5872 15.08843959124583,6917.868,95.437,540.696,538.771,0.0
51118.0,STARLINK-3394,PAYLOAD,2024-04-10 21:52:25,15.088432,0.0001124,53.2162,181.5677,79.3764,280.7355,5.3304e-05,5.61e-06,0.0,0 STARLINK-3394,1 51118U 22005Q   24101.91140724  .00000561  00000-0  53304-4 0  9992,2 51118  53.2162 181.5677 0001124  79.3764 280.7355 15.08843200123531,6917.871,95.437,540.513,538.958,0.0
51118.0,STARLINK-3394,PAYLOAD,2024-04-11 05:49:21,15.08839147,0.0001459,53.2181,180.0839,88.8958,271.2202,-1.8677e-05,-5.85e-06,0.0,0 STARLINK-3394,1 51118U 22005Q   24102.24261293 -.00000585  00000-0 -18677-4 0  9996,2 51118  53.2181 180.0839 0001459  88.8958 271.2202 15.08839147124696,6917.883,95.438,540.757,538.739,0.0
51118.0,STARLINK-3394,PAYLOAD,2024-04-11 12:10:54,15.08839201,0.0001427,53.2184,178.8961,89.6358,270.4798,-4.6191e-06,-3.61e-06,0.0,0 STARLINK-3394,1 51118U 22005Q   24102.50757212 -.00000361  00000-0 -46191-5 0  9991,2 51118  53.2184 178.8961 0001427  89.6358 270.4798 15.08839201123622,6917.883,95.438,540.735,538.761,0.0
51118.0,STARLINK-3394,PAYLOAD,2024-04-11 21:43:13,15.0883805,0.0001557,53.2188,177.1118,90.5414,269.5757,2.3766e-05,9e-07,0.0,0 STARLINK-3394,1 51118U 22005Q   24102.90501228  .00000090  00000-0  23766-4 0  9998,2 51118  53.2188 177.1118 0001557  90.5414 269.5757 15.08838050123681,6917.886,95.438,540.828,538.674,0.0
51118.0,STARLINK-3394,PAYLOAD,2024-04-12 10:26:18,15.08835396,0.0001517,53.2187,174.7344,104.9983,255.1177,5.2628e-06,-2.04e-06,0.0,0 STARLINK-3394,1 51118U 22005Q   24103.43493577 -.00000204  00000-0  52628-5 0  9992,2 51118  53.2187 174.7344 0001517 104.9983 255.1177 15.08835396124870,6917.894,95.438,540.809,538.71,0.0
51118.0,STARLINK-3394,PAYLOAD,2024-04-13 11:52:28,15.08828879,0.0001544,53.218,169.9758,105.511,254.6053,0.00019235,2.774e-05,0.0,0 STARLINK-3394,1 51118U 22005Q   24104.49477984  .00002774  00000-0  19235-3 0  9991,2 51118  53.2180 169.9758 0001544 105.5110 254.6053 15.08828879125031,6917.914,95.438,540.848,538.711,0.0
51118.0,STARLINK-3394,PAYLOAD,2024-04-14 10:07:52,15.08842327,0.0001717,53.218,165.8119,71.2406,288.8773,0.00014231,1.978e-05,0.0,0 STARLINK-3394,1 51118U 22005Q   24105.42213684  .00001978  00000-0  14231-3 0  9996,2 51118  53.2180 165.8119 0001717  71.2406 288.8773 15.08842327125173,6917.873,95.437,540.926,538.55,0.0
51118.0,STARLINK-3394,PAYLOAD,2024-04-15 13:09:25,15.08847203,0.000162,53.217,160.7551,80.9217,279.1958,0.00010155,1.329e-05,0.0,0 STARLINK-3394,1 51118U 22005Q   24106.54821481  .00001329  00000-0  10155-3 0  9991,2 51118  53.2170 160.7551 0001620  80.9217 279.1958 15.08847203125341,6917.858,95.437,540.844,538.603,0.0
51118.0,STARLINK-3394,PAYLOAD,2024-04-15 21:06:22,15.08830619,0.0001673,53.2164,159.2682,77.6039,282.514,0.00027179,4.039e-05,0.0,0 STARLINK-3394,1 51118U 22005Q   24106.87942273  .00004039  00000-0  27179-3 0  9995,2 51118  53.2164 159.2682 0001673  77.6039 282.5140 15.08830619125394,6917.909,95.438,540.931,538.617,0.0
51118.0,STARLINK-3394,PAYLOAD,2024-04-16 09:49:26,15.08843234,0.000156,53.2165,156.8876,98.3987,261.7182,4.7754e-05,4.72e-06,0.0,0 STARLINK-3394,1 51118U 22005Q   24107.40933653  .00000472  00000-0  47754-4 0  9996,2 51118  53.2165 156.8876 0001560  98.3987 261.7182 15.08843234125471,6917.871,95.437,540.815,538.656,0.0
51118.0,STARLINK-3394,PAYLOAD,2024-04-17 09:40:13,15.08854079,0.0001533,53.216,152.428,89.0524,271.0644,0.00021042,3.064e-05,0.0,0 STARLINK-3394,1 51118U 22005Q   24108.40293019  .00003064  00000-0  21042-3 0  9993,2 51118  53.2160 152.4280 0001533  89.0524 271.0644 15.08854079124511,6917.837,95.437,540.763,538.642,0.0
